[{"OBJECT_NAME":"TRANSPORTER-10 OBJECT AD","OBJECT_ID":"2024-043AD","EPOCH":"2026-03-09T20:38:52.416960","MEAN_MOTION":15.34189901,"ECCENTRICITY":0.00089841,"INCLINATION":97.547,"RA_OF_ASC_NODE":207.3753,"ARG_OF_PERICENTER":221.4908,"MEAN_ANOMALY":138.5653,"EPHEMERIS_TYPE":0,"CLASSIFICATION_TYPE":"U","NORAD_CAT_ID":59125,"ELEMENT_SET_NO":999,"REV_AT_EPOCH":11202,"BSTAR":0.00036310552,"MEAN_MOTION_DOT":0.00011954,"MEAN_MOTION_DDOT":0},{"OBJECT_NAME":"STARLINK-35726","OBJECT_ID":"2025-247R","EPOCH":"2026-03-09T15:50:19.285152","MEAN_MOTION":15.30190344,"ECCENTRICITY":0.00012421,"INCLINATION":53.1602,"RA_OF_ASC_NODE":191.2591,"ARG_OF_PERICENTER":63.1435,"MEAN_ANOMALY":296.9692,"EPHEMERIS_TYPE":0,"CLASSIFICATION_TYPE":"U","NORAD_CAT_ID":66280,"ELEMENT_SET_NO":999,"REV_AT_EPOCH":2103,"BSTAR":0.0009538783,"MEAN_MOTION_DOT":0.0002799,"MEAN_MOTION_DDOT":0}]
